STARLINK-31863          
1 59789U 24093H   26063.49105075  .00001640  00000+0  69103-4 0  9997
2 59789  43.0004 237.9729 0001253 242.4284 117.6440 15.27581103101904
STARLINK-31873          
1 59790U 24093J   26063.50133013  .00001879  00000+0  77788-4 0  9996
2 59790  42.9997 238.0490 0001135 272.2075  87.8646 15.27580850101904
STARLINK-31865          
1 59791U 24093K   26063.50518182  .00001715  00000+0  71825-4 0  9996
2 59791  42.9996 238.0758 0000935 257.2846 102.7901 15.27583038101909
STARLINK-31823          
1 59794U 24093N   26063.50904031  .00000790  00000+0  38240-4 0  9997
2 59794  42.9994 238.1038 0001056 267.8404  92.2327 15.27580718101901
STARLINK-31916          
1 59795U 24093P   26063.51289733  .00000246  00000+0  18480-4 0  9994
2 59795  43.0002 238.1332 0001341 270.0003  90.0694 15.27578959101906
STARLINK-31907          
1 59797U 24093R   26063.51546584  .00000560  00000+0  29885-4 0  9996
2 59797  42.9999 238.1512 0001390 270.9125  89.1568 15.27575654101907
STARLINK-31687          
1 59798U 24093S   26063.54116442  .00001081  00000+0  48792-4 0  9993
2 59798  43.0009 238.3461 0001160 259.1930 100.8791 15.27579560101904
STARLINK-31810          
1 59799U 24093T   26063.52702686  .00001005  00000+0  46028-4 0  9999
2 59799  43.0016 238.2378 0001092 274.1709  85.9018 15.27578823101900
STARLINK-31812          
1 59800U 24093U   26063.51932096 -.00000035  00000+0  82287-5 0  9992
2 59800  42.9979 238.1786 0000890 277.9687  82.1064 15.27576932101978
STARLINK-31815          
1 59801U 24093V   26063.52317603  .00000390  00000+0  23731-4 0  9996
2 59801  43.0046 238.2126 0002535 287.8568  72.2007 15.27570389101901
STARLINK-31814          
1 59802U 24093W   26063.54501802  .00000965  00000+0  44586-4 0  9994
2 59802  43.0033 238.3641 0001920 284.0015  76.0623 15.27574864101902
STARLINK-31794          
1 59803U 24093X   26063.53474154  .00000703  00000+0  35057-4 0  9996
2 59803  43.0036 238.2958 0001346 262.0940  97.9759 15.27590688101972
STARLINK-31824          
1 59804U 24093Y   26063.53088249  .00002186  00000+0  88927-4 0  9994
2 59804  43.0042 238.2677 0001370 265.5496  94.5200 15.27580517101906
STARLINK-31947          
1 59835U 24097A   26063.09443163  .00001792  00000+0  74591-4 0  9997
2 59835  42.9970 305.7441 0000482 331.5903  28.4922 15.27587813101067
STARLINK-31929          
1 59836U 24097B   26063.00349298  .00001898  00000+0  78495-4 0  9997
2 59836  43.0018 306.7778 0001462 263.2527  96.8158 15.27581150101045
STARLINK-31927          
1 59837U 24097C   26063.63551193  .00001761  00000+0  73494-4 0  9999
2 59837  43.0011 302.9202 0000884 241.1367 118.9396 15.27581611101146
