[{"OBJECT_NAME":"STARLINK-31863","OBJECT_ID":"2024-093H","EPOCH":"2026-03-04T11:47:06.784800","MEAN_MOTION":15.27581103,"ECCENTRICITY":0.00012535,"INCLINATION":43.0004,"RA_OF_ASC_NODE":237.9729,"ARG_OF_PERICENTER":242.4284,"MEAN_ANOMALY":117.644,"EPHEMERIS_TYPE":0,"CLASSIFICATION_TYPE":"U","NORAD_CAT_ID":59789,"ELEMENT_SET_NO":999,"REV_AT_EPOCH":10190,"BSTAR":6.9102971e-5,"MEAN_MOTION_DOT":1.64e-5,"MEAN_MOTION_DDOT":0},{"OBJECT_NAME":"STARLINK-31873","OBJECT_ID":"2024-093J","EPOCH":"2026-03-04T12:01:54.923232","MEAN_MOTION":15.2758085,"ECCENTRICITY":0.0001135,"INCLINATION":42.9997,"RA_OF_ASC_NODE":238.049,"ARG_OF_PERICENTER":272.2075,"MEAN_ANOMALY":87.8646,"EPHEMERIS_TYPE":0,"CLASSIFICATION_TYPE":"U","NORAD_CAT_ID":59790,"ELEMENT_SET_NO":999,"REV_AT_EPOCH":10190,"BSTAR":7.7788164e-5,"MEAN_MOTION_DOT":1.879e-5,"MEAN_MOTION_DDOT":0},{"OBJECT_NAME":"STARLINK-31865","OBJECT_ID":"2024-093K","EPOCH":"2026-03-04T12:07:27.709248","MEAN_MOTION":15.27583038,"ECCENTRICITY":9.352e-5,"INCLINATION":42.9996,"RA_OF_ASC_NODE":238.0758,"ARG_OF_PERICENTER":257.2846,"MEAN_ANOMALY":102.7901,"EPHEMERIS_TYPE":0,"CLASSIFICATION_TYPE":"U","NORAD_CAT_ID":59791,"ELEMENT_SET_NO":999,"REV_AT_EPOCH":10190,"BSTAR":7.18247e-5,"MEAN_MOTION_DOT":1.715e-5,"MEAN_MOTION_DDOT":0},{"OBJECT_NAME":"STARLINK-31823","OBJECT_ID":"2024-093N","EPOCH":"2026-03-04T12:13:01.082784","MEAN_MOTION":15.27580718,"ECCENTRICITY":0.00010562,"INCLINATION":42.9994,"RA_OF_ASC_NODE":238.1038,"ARG_OF_PERICENTER":267.8404,"MEAN_ANOMALY":92.2327,"EPHEMERIS_TYPE":0,"CLASSIFICATION_TYPE":"U","NORAD_CAT_ID":59794,"ELEMENT_SET_NO":999,"REV_AT_EPOCH":10190,"BSTAR":3.8240124e-5,"MEAN_MOTION_DOT":7.9e-6,"MEAN_MOTION_DDOT":0},{"OBJECT_NAME":"STARLINK-31916","OBJECT_ID":"2024-093P","EPOCH":"2026-03-04T12:18:34.329312","MEAN_MOTION":15.27578959,"ECCENTRICITY":0.00013416,"INCLINATION":43.0002,"RA_OF_ASC_NODE":238.1332,"ARG_OF_PERICENTER":270.0003,"MEAN_ANOMALY":90.0694,"EPHEMERIS_TYPE":0,"CLASSIFICATION_TYPE":"U","NORAD_CAT_ID":59795,"ELEMENT_SET_NO":999,"REV_AT_EPOCH":10190,"BSTAR":1.8479512e-5,"MEAN_MOTION_DOT":2.46e-6,"MEAN_MOTION_DDOT":0},{"OBJECT_NAME":"STARLINK-31907","OBJECT_ID":"2024-093R","EPOCH":"2026-03-04T12:22:16.248576","MEAN_MOTION":15.27575654,"ECCENTRICITY":0.00013909,"INCLINATION":42.9999,"RA_OF_ASC_NODE":238.1512,"ARG_OF_PERICENTER":270.9125,"MEAN_ANOMALY":89.1568,"EPHEMERIS_TYPE":0,"CLASSIFICATION_TYPE":"U","NORAD_CAT_ID":59797,"ELEMENT_SET_NO":999,"REV_AT_EPOCH":10190,"BSTAR":2.988508e-5,"MEAN_MOTION_DOT":5.6e-6,"MEAN_MOTION_DDOT":0},{"OBJECT_NAME":"STARLINK-31687","OBJECT_ID":"2024-093S","EPOCH":"2026-03-04T12:59:16.605888","MEAN_MOTION":15.2757956,"ECCENTRICITY":0.00011604,"INCLINATION":43.0009,"RA_OF_ASC_NODE":238.3461,"ARG_OF_PERICENTER":259.193,"MEAN_ANOMALY":100.8791,"EPHEMERIS_TYPE":0,"CLASSIFICATION_TYPE":"U","NORAD_CAT_ID":59798,"ELEMENT_SET_NO":999,"REV_AT_EPOCH":10190,"BSTAR":4.8791566e-5,"MEAN_MOTION_DOT":1.081e-5,"MEAN_MOTION_DDOT":0},{"OBJECT_NAME":"STARLINK-31810","OBJECT_ID":"2024-093T","EPOCH":"2026-03-04T12:38:55.120704","MEAN_MOTION":15.27578823,"ECCENTRICITY":0.00010926,"INCLINATION":43.0016,"RA_OF_ASC_NODE":238.2378,"ARG_OF_PERICENTER":274.1709,"MEAN_ANOMALY":85.9018,"EPHEMERIS_TYPE":0,"CLASSIFICATION_TYPE":"U","NORAD_CAT_ID":59799,"ELEMENT_SET_NO":999,"REV_AT_EPOCH":10190,"BSTAR":4.6027853e-5,"MEAN_MOTION_DOT":1.005e-5,"MEAN_MOTION_DDOT":0},{"OBJECT_NAME":"STARLINK-31812","OBJECT_ID":"2024-093U","EPOCH":"2026-03-04T12:27:49.330944","MEAN_MOTION":15.27576932,"ECCENTRICITY":8.906e-5,"INCLINATION":42.9979,"RA_OF_ASC_NODE":238.1786,"ARG_OF_PERICENTER":277.9687,"MEAN_ANOMALY":82.1064,"EPHEMERIS_TYPE":0,"CLASSIFICATION_TYPE":"U","NORAD_CAT_ID":59800,"ELEMENT_SET_NO":999,"REV_AT_EPOCH":10197,"BSTAR":8.228742e-6,"MEAN_MOTION_DOT":-3.5e-7,"MEAN_MOTION_DDOT":0},{"OBJECT_NAME":"STARLINK-31815","OBJECT_ID":"2024-093V","EPOCH":"2026-03-04T12:33:22.408992","MEAN_MOTION":15.27570389,"ECCENTRICITY":0.00025352,"INCLINATION":43.0046,"RA_OF_ASC_NODE":238.2126,"ARG_OF_PERICENTER":287.8568,"MEAN_ANOMALY":72.2007,"EPHEMERIS_TYPE":0,"CLASSIFICATION_TYPE":"U","NORAD_CAT_ID":59801,"ELEMENT_SET_NO":999,"REV_AT_EPOCH":10190,"BSTAR":2.3730744e-5,"MEAN_MOTION_DOT":3.9e-6,"MEAN_MOTION_DDOT":0},{"OBJECT_NAME":"STARLINK-31814","OBJECT_ID":"2024-093W","EPOCH":"2026-03-04T13:04:49.556928","MEAN_MOTION":15.27574864,"ECCENTRICITY":0.00019207,"INCLINATION":43.0033,"RA_OF_ASC_NODE":238.3641,"ARG_OF_PERICENTER":284.0015,"MEAN_ANOMALY":76.0623,"EPHEMERIS_TYPE":0,"CLASSIFICATION_TYPE":"U","NORAD_CAT_ID":59802,"ELEMENT_SET_NO":999,"REV_AT_EPOCH":10190,"BSTAR":4.4586383e-5,"MEAN_MOTION_DOT":9.65e-6,"MEAN_MOTION_DDOT":0},{"OBJECT_NAME":"STARLINK-31794","OBJECT_ID":"2024-093X","EPOCH":"2026-03-04T12:50:01.669056","MEAN_MOTION":15.27590688,"ECCENTRICITY":0.00013463,"INCLINATION":43.0036,"RA_OF_ASC_NODE":238.2958,"ARG_OF_PERICENTER":262.094,"MEAN_ANOMALY":97.9759,"EPHEMERIS_TYPE":0,"CLASSIFICATION_TYPE":"U","NORAD_CAT_ID":59803,"ELEMENT_SET_NO":999,"REV_AT_EPOCH":10197,"BSTAR":3.5057204e-5,"MEAN_MOTION_DOT":7.03e-6,"MEAN_MOTION_DDOT":0},{"OBJECT_NAME":"STARLINK-31824","OBJECT_ID":"2024-093Y","EPOCH":"2026-03-04T12:44:28.247136","MEAN_MOTION":15.27580517,"ECCENTRICITY":0.00013702,"INCLINATION":43.0042,"RA_OF_ASC_NODE":238.2677,"ARG_OF_PERICENTER":265.5496,"MEAN_ANOMALY":94.52,"EPHEMERIS_TYPE":0,"CLASSIFICATION_TYPE":"U","NORAD_CAT_ID":59804,"ELEMENT_SET_NO":999,"REV_AT_EPOCH":10190,"BSTAR":8.8927169e-5,"MEAN_MOTION_DOT":2.186e-5,"MEAN_MOTION_DDOT":0},{"OBJECT_NAME":"STARLINK-31947","OBJECT_ID":"2024-097A","EPOCH":"2026-03-04T02:15:58.892832","MEAN_MOTION":15.27587813,"ECCENTRICITY":4.827e-5,"INCLINATION":42.997,"RA_OF_ASC_NODE":305.7441,"ARG_OF_PERICENTER":331.5903,"MEAN_ANOMALY":28.4922,"EPHEMERIS_TYPE":0,"CLASSIFICATION_TYPE":"U","NORAD_CAT_ID":59835,"ELEMENT_SET_NO":999,"REV_AT_EPOCH":10106,"BSTAR":7.4591426e-5,"MEAN_MOTION_DOT":1.792e-5,"MEAN_MOTION_DDOT":0},{"OBJECT_NAME":"STARLINK-31929","OBJECT_ID":"2024-097B","EPOCH":"2026-03-04T00:05:01.793472","MEAN_MOTION":15.2758115,"ECCENTRICITY":0.00014623,"INCLINATION":43.0018,"RA_OF_ASC_NODE":306.7778,"ARG_OF_PERICENTER":263.2527,"MEAN_ANOMALY":96.8158,"EPHEMERIS_TYPE":0,"CLASSIFICATION_TYPE":"U","NORAD_CAT_ID":59836,"ELEMENT_SET_NO":999,"REV_AT_EPOCH":10104,"BSTAR":7.8495248e-5,"MEAN_MOTION_DOT":1.898e-5,"MEAN_MOTION_DDOT":0},{"OBJECT_NAME":"STARLINK-31927","OBJECT_ID":"2024-097C","EPOCH":"2026-03-04T15:15:08.230752","MEAN_MOTION":15.27581611,"ECCENTRICITY":8.84e-5,"INCLINATION":43.0011,"RA_OF_ASC_NODE":302.9202,"ARG_OF_PERICENTER":241.1367,"MEAN_ANOMALY":118.9396,"EPHEMERIS_TYPE":0,"CLASSIFICATION_TYPE":"U","NORAD_CAT_ID":59837,"ELEMENT_SET_NO":999,"REV_AT_EPOCH":10114,"BSTAR":7.3493848e-5,"MEAN_MOTION_DOT":1.761e-5,"MEAN_MOTION_DDOT":0}]
